0 DELTA 1 DEB
1 21317U 75052AK  13283.41725190  .00001614  00000-0  32578-2 0  5589
2 21317 100.0701 246.3766 0228212 152.8072 004.2964 13.26259965 64756
0 DELTA 1 DEB
1 21317U 75052AK  13285.88662576  .00001652  00000-0  33313-2 0  5591
2 21317 100.0702 248.7730 0228489 146.9472 274.4894 13.26267558 65085
0 DELTA 1 DEB
1 21317U 75052AK  13288.16180035  .00002050  00000-0  41101-2 0  5609
2 21317 100.0705 250.9807 0228802 141.5356 337.5379 13.26276554 65387
0 DELTA 1 DEB
1 21317U 75052AK  13290.35856105  .00001930  00000-0  38737-2 0  5619
2 21317 100.0711 253.1126 0229049 136.3301 026.2504 13.26285350 65677
0 DELTA 1 DEB
1 21317U 75052AK  13293.37392054  .00002012  00000-0  40304-2 0  5628
2 21317 100.0712 256.0389 0229472 129.1808 023.5559 13.26294643 66073
0 DELTA 1 DEB
1 21317U 75052AK  13295.40567149  .00002027  00000-0  40582-2 0  5638
2 21317 100.0703 258.0104 0229837 124.3612 004.5377 13.26302430 66346
